[{"OBJECT_NAME":"STARLINK-30991","OBJECT_ID":"2023-186M","EPOCH":"2026-03-09T22:00:01.999584","MEAN_MOTION":15.27552721,"ECCENTRICITY":0.00022618,"INCLINATION":43.0044,"RA_OF_ASC_NODE":61.9791,"ARG_OF_PERICENTER":269.0329,"MEAN_ANOMALY":152.6402,"EPHEMERIS_TYPE":0,"CLASSIFICATION_TYPE":"U","NORAD_CAT_ID":58484,"ELEMENT_SET_NO":999,"REV_AT_EPOCH":577,"BSTAR":0.0016858678,"MEAN_MOTION_DOT":0.00046384,"MEAN_MOTION_DDOT":0},{"OBJECT_NAME":"NUSAT-44 (MARIA MITCHELL)","OBJECT_ID":"2024-043AA","EPOCH":"2026-03-09T22:12:18.524160","MEAN_MOTION":15.29764305,"ECCENTRICITY":0.0007331,"INCLINATION":97.5299,"RA_OF_ASC_NODE":207.7691,"ARG_OF_PERICENTER":214.9017,"MEAN_ANOMALY":145.1743,"EPHEMERIS_TYPE":0,"CLASSIFICATION_TYPE":"U","NORAD_CAT_ID":59122,"ELEMENT_SET_NO":999,"REV_AT_EPOCH":11209,"BSTAR":0.00061063193,"MEAN_MOTION_DOT":0.00017562,"MEAN_MOTION_DDOT":0}]
